IRIDIUM 171             
1 43929U 19002H   25095.50341241  .00000064  00000+0  15703-4 0  9999
2 43929  86.4049 176.7591 0002175 106.6697 253.4738 14.34217700326222
IRIDIUM 170             
1 43930U 19002J   25095.72500958  .00002440  00000+0  38304-3 0  9998
2 43930  86.6162 176.4356 0001876  96.6305 263.5126 14.72247510334898
IRIDIUM 167             
1 43931U 19002K   25095.77614431  .00000018  00000+0 -63499-6 0  9992
2 43931  86.4040 176.4065 0001823 104.2492 255.8906 14.34217647326262
IRIDIUM 181             
1 56726U 23068S   25095.15274883  .00001034  00000+0  30130-3 0  9991
2 56726  86.4498 239.7202 0002062 110.5436 249.5987 14.43303058 99252
IRIDIUM 177             
1 56727U 23068T   25095.73736837  .00002549  00000+0  33208-3 0  9999
2 56727  86.2032 176.4963 0001973 103.6632 256.4808 14.80212647101658
IRIDIUM 174             
1 56728U 23068U   25095.05592673  .00003489  00000+0  45530-3 0  9998
2 56728  86.2033 176.9456 0002820  97.4869 262.6672 14.80257143101553
IRIDIUM 178             
1 56729U 23068V   25095.79406962  .00003677  00000+0  48061-3 0  9996
2 56729  86.6601 208.0192 0002347 101.8983 258.2501 14.80220180101669
IRIDIUM 179             
1 56730U 23068W   25095.85640357  .00003779  00000+0  49359-3 0  9997
2 56730  86.6826 215.6481 0002037  85.6216 274.5239 14.80251476101671
